{
  "type": "FeatureCollection",
  "features": [
    {
      "type": "Feature",
      "properties": {
        "name": "Jalur pendakian Gunung Butak via Panderman",
        "engine": "Alam Engine",
        "distance_km": 2.24,
        "elevation_gain": 282
      },
      "geometry": {
        "type": "LineString",
        "coordinates": [
          [
            112.492678,
            -7.891033,
            1449.0
          ],
          [
            112.492517,
            -7.891162,
            1455.0
          ],
          [
            112.492305,
            -7.891199,
            1454.0
          ],
          [
            112.492125,
            -7.891245,
            1453.0
          ],
          [
            112.491828,
            -7.89156,
            1466.0
          ],
          [
            112.49148,
            -7.891793,
            1470.0
          ],
          [
            112.491188,
            -7.892105,
            1470.0
          ],
          [
            112.491136,
            -7.892469,
            1477.0
          ],
          [
            112.491062,
            -7.892788,
            1485.0
          ],
          [
            112.491004,
            -7.893203,
            1497.0
          ],
          [
            112.490903,
            -7.893758,
            1503.0
          ],
          [
            112.490792,
            -7.894411,
            1526.0
          ],
          [
            112.490561,
            -7.894531,
            1520.0
          ],
          [
            112.490395,
            -7.894756,
            1530.0
          ],
          [
            112.490295,
            -7.894849,
            1532.0
          ],
          [
            112.490182,
            -7.894745,
            1530.0
          ],
          [
            112.490123,
            -7.894689,
            1529.0
          ],
          [
            112.489931,
            -7.894493,
            1523.0
          ],
          [
            112.489789,
            -7.894555,
            1525.0
          ],
          [
            112.489557,
            -7.894705,
            1526.0
          ],
          [
            112.489405,
            -7.894922,
            1530.0
          ],
          [
            112.489291,
            -7.895035,
            1533.0
          ],
          [
            112.489092,
            -7.895256,
            1539.0
          ],
          [
            112.488935,
            -7.895572,
            1545.0
          ],
          [
            112.488779,
            -7.895779,
            1547.0
          ],
          [
            112.488662,
            -7.895989,
            1547.0
          ],
          [
            112.488651,
            -7.896268,
            1550.0
          ],
          [
            112.488754,
            -7.896485,
            1555.0
          ],
          [
            112.489047,
            -7.896615,
            1571.0
          ],
          [
            112.489112,
            -7.89667,
            1575.0
          ],
          [
            112.489245,
            -7.896769,
            1580.0
          ],
          [
            112.489464,
            -7.89705,
            1583.0
          ],
          [
            112.489633,
            -7.897384,
            1592.0
          ],
          [
            112.489575,
            -7.897558,
            1595.0
          ],
          [
            112.489455,
            -7.897604,
            1595.0
          ],
          [
            112.489414,
            -7.897594,
            1594.0
          ],
          [
            112.489275,
            -7.897547,
            1591.0
          ],
          [
            112.489141,
            -7.897479,
            1586.0
          ],
          [
            112.489,
            -7.897448,
            1583.0
          ],
          [
            112.488909,
            -7.897483,
            1583.0
          ],
          [
            112.488839,
            -7.89761,
            1589.0
          ],
          [
            112.488735,
            -7.897702,
            1593.0
          ],
          [
            112.488599,
            -7.897888,
            1599.0
          ],
          [
            112.488509,
            -7.898161,
            1606.0
          ],
          [
            112.488491,
            -7.898487,
            1615.0
          ],
          [
            112.488432,
            -7.898826,
            1622.0
          ],
          [
            112.488346,
            -7.899146,
            1627.0
          ],
          [
            112.488245,
            -7.899333,
            1630.0
          ],
          [
            112.488229,
            -7.899513,
            1634.0
          ],
          [
            112.488525,
            -7.900352,
            1655.0
          ],
          [
            112.488407,
            -7.900788,
            1660.0
          ],
          [
            112.488483,
            -7.901132,
            1664.0
          ],
          [
            112.488469,
            -7.901434,
            1665.0
          ],
          [
            112.488596,
            -7.901643,
            1668.0
          ],
          [
            112.488706,
            -7.901877,
            1675.0
          ],
          [
            112.488735,
            -7.902046,
            1679.0
          ],
          [
            112.488756,
            -7.902432,
            1681.0
          ],
          [
            112.48874,
            -7.902799,
            1681.0
          ],
          [
            112.48866,
            -7.903028,
            1682.0
          ],
          [
            112.488536,
            -7.903474,
            1686.0
          ],
          [
            112.48852,
            -7.903734,
            1689.0
          ],
          [
            112.48859,
            -7.904028,
            1690.0
          ],
          [
            112.488681,
            -7.904335,
            1689.0
          ],
          [
            112.488729,
            -7.904478,
            1690.0
          ],
          [
            112.488686,
            -7.904738,
            1689.0
          ],
          [
            112.488686,
            -7.905286,
            1692.0
          ],
          [
            112.488605,
            -7.905549,
            1692.0
          ],
          [
            112.488527,
            -7.9058,
            1693.0
          ],
          [
            112.488272,
            -7.906077,
            1693.0
          ],
          [
            112.48772,
            -7.906229,
            1699.0
          ],
          [
            112.487265,
            -7.906439,
            1700.0
          ]
        ]
      }
    }
  ]
}