{
  "type": "FeatureCollection",
  "features": [
    {
      "type": "Feature",
      "properties": {
        "name": "Lawu via Candi Cetho",
        "route_id": "lawu-via-candi-cetho",
        "mountain": "Lawu",
        "route": "Candi Cetho",
        "engine": "Alam Engine",
        "distance_km": 8.66,
        "elevation_gain": 1864,
        "elevation_loss": 50
      },
      "geometry": {
        "type": "LineString",
        "coordinates": [
          [
            111.155754,
            -7.595031,
            1433.39
          ],
          [
            111.155817,
            -7.59504,
            1435.13
          ],
          [
            111.156127,
            -7.595129,
            1444.64
          ],
          [
            111.156249,
            -7.594905,
            1444.13
          ],
          [
            111.156404,
            -7.595001,
            1449.4
          ],
          [
            111.15649,
            -7.595042,
            1452.79
          ],
          [
            111.156644,
            -7.59503,
            1456.11
          ],
          [
            111.156828,
            -7.595004,
            1458.39
          ],
          [
            111.157035,
            -7.595001,
            1460.84
          ],
          [
            111.157448,
            -7.595041,
            1465.6
          ],
          [
            111.157758,
            -7.59511,
            1469.04
          ],
          [
            111.157891,
            -7.595037,
            1465.78
          ],
          [
            111.157978,
            -7.595034,
            1465.61
          ],
          [
            111.158116,
            -7.595092,
            1469.14
          ],
          [
            111.158233,
            -7.595171,
            1475
          ],
          [
            111.158429,
            -7.595248,
            1483.22
          ],
          [
            111.158664,
            -7.59527,
            1487.44
          ],
          [
            111.158955,
            -7.595201,
            1487.19
          ],
          [
            111.159228,
            -7.595066,
            1486.63
          ],
          [
            111.159475,
            -7.594908,
            1485.92
          ],
          [
            111.159691,
            -7.594761,
            1487.84
          ],
          [
            111.159924,
            -7.594666,
            1492.31
          ],
          [
            111.160115,
            -7.594495,
            1494.21
          ],
          [
            111.160158,
            -7.594412,
            1493.82
          ],
          [
            111.160211,
            -7.59431,
            1496.6
          ],
          [
            111.160399,
            -7.594229,
            1502.42
          ],
          [
            111.160349,
            -7.594125,
            1504.94
          ],
          [
            111.160273,
            -7.594173,
            1501.34
          ],
          [
            111.16007,
            -7.594169,
            1498.8
          ],
          [
            111.159931,
            -7.594081,
            1501.62
          ],
          [
            111.159872,
            -7.59394,
            1506
          ],
          [
            111.159877,
            -7.593728,
            1509.74
          ],
          [
            111.159901,
            -7.593579,
            1507.88
          ],
          [
            111.160041,
            -7.593571,
            1509.02
          ],
          [
            111.160308,
            -7.593616,
            1511.73
          ],
          [
            111.160404,
            -7.593611,
            1511.86
          ],
          [
            111.160505,
            -7.593566,
            1510.82
          ],
          [
            111.16067,
            -7.593583,
            1511.93
          ],
          [
            111.160719,
            -7.593557,
            1511.06
          ],
          [
            111.160734,
            -7.593541,
            1510.56
          ],
          [
            111.16101,
            -7.593934,
            1521
          ],
          [
            111.161005,
            -7.593974,
            1521.65
          ],
          [
            111.1611,
            -7.594196,
            1525.13
          ],
          [
            111.161293,
            -7.594345,
            1529.6
          ],
          [
            111.161567,
            -7.594573,
            1535.89
          ],
          [
            111.161703,
            -7.594745,
            1539.11
          ],
          [
            111.161804,
            -7.59492,
            1541.31
          ],
          [
            111.161826,
            -7.594944,
            1541.93
          ],
          [
            111.161943,
            -7.594997,
            1544.95
          ],
          [
            111.162039,
            -7.595185,
            1548.2
          ],
          [
            111.162197,
            -7.595299,
            1553.41
          ],
          [
            111.16235,
            -7.595435,
            1557.94
          ],
          [
            111.162711,
            -7.595685,
            1567.3
          ],
          [
            111.162884,
            -7.595824,
            1571.56
          ],
          [
            111.162994,
            -7.595934,
            1574.81
          ],
          [
            111.163075,
            -7.595984,
            1577.15
          ],
          [
            111.163181,
            -7.596106,
            1581.68
          ],
          [
            111.163183,
            -7.596122,
            1581.72
          ],
          [
            111.163193,
            -7.596126,
            1581.99
          ],
          [
            111.163219,
            -7.596115,
            1582.63
          ],
          [
            111.163257,
            -7.596131,
            1583.62
          ],
          [
            111.163293,
            -7.596151,
            1584.59
          ],
          [
            111.163344,
            -7.596228,
            1587.05
          ],
          [
            111.163379,
            -7.596245,
            1588.46
          ],
          [
            111.1634,
            -7.596237,
            1588.98
          ],
          [
            111.163444,
            -7.596262,
            1590.63
          ],
          [
            111.1635,
            -7.596353,
            1591.92
          ],
          [
            111.163523,
            -7.596358,
            1592.65
          ],
          [
            111.163577,
            -7.596386,
            1594.54
          ],
          [
            111.163628,
            -7.596385,
            1595.8
          ],
          [
            111.16372,
            -7.596447,
            1598.93
          ],
          [
            111.163838,
            -7.596484,
            1601.85
          ],
          [
            111.163924,
            -7.596549,
            1604.61
          ],
          [
            111.164104,
            -7.596607,
            1611.11
          ],
          [
            111.164301,
            -7.596697,
            1615.42
          ],
          [
            111.164368,
            -7.596721,
            1617.4
          ],
          [
            111.164409,
            -7.596719,
            1618.66
          ],
          [
            111.164627,
            -7.596765,
            1625.06
          ],
          [
            111.164762,
            -7.596835,
            1628.37
          ],
          [
            111.164874,
            -7.59688,
            1630.95
          ],
          [
            111.16495,
            -7.596919,
            1633.26
          ],
          [
            111.165021,
            -7.596939,
            1634.9
          ],
          [
            111.165159,
            -7.597029,
            1638.35
          ],
          [
            111.165366,
            -7.597055,
            1642.06
          ],
          [
            111.165516,
            -7.597118,
            1646.66
          ],
          [
            111.165592,
            -7.597116,
            1647.92
          ],
          [
            111.165669,
            -7.597132,
            1649.67
          ],
          [
            111.165804,
            -7.597181,
            1653.49
          ],
          [
            111.165858,
            -7.597183,
            1654.69
          ],
          [
            111.165923,
            -7.59721,
            1657.1
          ],
          [
            111.165954,
            -7.597241,
            1659
          ],
          [
            111.166057,
            -7.597285,
            1662.91
          ],
          [
            111.166175,
            -7.597354,
            1667.4
          ],
          [
            111.166558,
            -7.597588,
            1680.89
          ],
          [
            111.16682,
            -7.597747,
            1688.24
          ],
          [
            111.16689,
            -7.597766,
            1689.8
          ],
          [
            111.166946,
            -7.597822,
            1691.36
          ],
          [
            111.167028,
            -7.597853,
            1692.61
          ],
          [
            111.167088,
            -7.597856,
            1694.19
          ],
          [
            111.167281,
            -7.597917,
            1699.9
          ],
          [
            111.167343,
            -7.597922,
            1701.98
          ],
          [
            111.167424,
            -7.597968,
            1705.36
          ],
          [
            111.167501,
            -7.598031,
            1707.74
          ],
          [
            111.167604,
            -7.598061,
            1711.72
          ],
          [
            111.167636,
            -7.598099,
            1712.81
          ],
          [
            111.167676,
            -7.598125,
            1714.5
          ],
          [
            111.167907,
            -7.598215,
            1724.36
          ],
          [
            111.168085,
            -7.598306,
            1732.47
          ],
          [
            111.168372,
            -7.5984,
            1744.9
          ],
          [
            111.168586,
            -7.598486,
            1754.58
          ],
          [
            111.168672,
            -7.598499,
            1757.62
          ],
          [
            111.168722,
            -7.598463,
            1759.34
          ],
          [
            111.168682,
            -7.598376,
            1757.71
          ],
          [
            111.168706,
            -7.598345,
            1758.61
          ],
          [
            111.168858,
            -7.598315,
            1764.09
          ],
          [
            111.168994,
            -7.598303,
            1768.66
          ],
          [
            111.169054,
            -7.598267,
            1770.15
          ],
          [
            111.169109,
            -7.598213,
            1770.74
          ],
          [
            111.169218,
            -7.598214,
            1773.2
          ],
          [
            111.169572,
            -7.598406,
            1786.4
          ],
          [
            111.169705,
            -7.598373,
            1789.4
          ],
          [
            111.169827,
            -7.598413,
            1794.06
          ],
          [
            111.169941,
            -7.598479,
            1799.7
          ],
          [
            111.170139,
            -7.59852,
            1807.5
          ],
          [
            111.170293,
            -7.59858,
            1814.83
          ],
          [
            111.170361,
            -7.598565,
            1816.9
          ],
          [
            111.170446,
            -7.598556,
            1819.59
          ],
          [
            111.17077,
            -7.5986,
            1831.04
          ],
          [
            111.170876,
            -7.598649,
            1836.25
          ],
          [
            111.170953,
            -7.598709,
            1841.01
          ],
          [
            111.171207,
            -7.598692,
            1850.17
          ],
          [
            111.171268,
            -7.598726,
            1853.51
          ],
          [
            111.171325,
            -7.598815,
            1858.76
          ],
          [
            111.171391,
            -7.599074,
            1867.85
          ],
          [
            111.171396,
            -7.599157,
            1870.23
          ],
          [
            111.171442,
            -7.599235,
            1874.1
          ],
          [
            111.171558,
            -7.599314,
            1880.72
          ],
          [
            111.171651,
            -7.59932,
            1884.11
          ],
          [
            111.171737,
            -7.599306,
            1886.68
          ],
          [
            111.171895,
            -7.599383,
            1893.24
          ],
          [
            111.172045,
            -7.599554,
            1900.66
          ],
          [
            111.172171,
            -7.599736,
            1906.78
          ],
          [
            111.172312,
            -7.599912,
            1912.79
          ],
          [
            111.172465,
            -7.600073,
            1918.23
          ],
          [
            111.172592,
            -7.600175,
            1922.78
          ],
          [
            111.172642,
            -7.600253,
            1925.52
          ],
          [
            111.172724,
            -7.600345,
            1929.51
          ],
          [
            111.17302,
            -7.600731,
            1944.62
          ],
          [
            111.173158,
            -7.600938,
            1951.75
          ],
          [
            111.173217,
            -7.601246,
            1956.76
          ],
          [
            111.173245,
            -7.601383,
            1960.14
          ],
          [
            111.173272,
            -7.60156,
            1965.88
          ],
          [
            111.173292,
            -7.601627,
            1968.02
          ],
          [
            111.173575,
            -7.601846,
            1981.39
          ],
          [
            111.173755,
            -7.601874,
            1987.29
          ],
          [
            111.173905,
            -7.60197,
            1993.48
          ],
          [
            111.174034,
            -7.602103,
            1999.81
          ],
          [
            111.174114,
            -7.602214,
            2003.81
          ],
          [
            111.174169,
            -7.602277,
            2005.65
          ],
          [
            111.174246,
            -7.602329,
            2008.41
          ],
          [
            111.174305,
            -7.602322,
            2011.45
          ],
          [
            111.174355,
            -7.602301,
            2014.23
          ],
          [
            111.17446,
            -7.602231,
            2019.98
          ],
          [
            111.174576,
            -7.602168,
            2025.36
          ],
          [
            111.17464,
            -7.602191,
            2028.77
          ],
          [
            111.174722,
            -7.602232,
            2032.98
          ],
          [
            111.174806,
            -7.602219,
            2037.73
          ],
          [
            111.174892,
            -7.602078,
            2042.86
          ],
          [
            111.17488,
            -7.601969,
            2041.68
          ],
          [
            111.174861,
            -7.601892,
            2040.2
          ],
          [
            111.174875,
            -7.601865,
            2040.65
          ],
          [
            111.174948,
            -7.601827,
            2043.93
          ],
          [
            111.175016,
            -7.601816,
            2047
          ],
          [
            111.175059,
            -7.601754,
            2047.73
          ],
          [
            111.175102,
            -7.60172,
            2048.81
          ],
          [
            111.17515,
            -7.601752,
            2051.69
          ],
          [
            111.175187,
            -7.601815,
            2054.68
          ],
          [
            111.175211,
            -7.601877,
            2056.95
          ],
          [
            111.175447,
            -7.602096,
            2070.94
          ],
          [
            111.175547,
            -7.602168,
            2075.55
          ],
          [
            111.175814,
            -7.602309,
            2087.04
          ],
          [
            111.175891,
            -7.602406,
            2089.56
          ],
          [
            111.175938,
            -7.602444,
            2090.84
          ],
          [
            111.176009,
            -7.602436,
            2094.72
          ],
          [
            111.176044,
            -7.602359,
            2097.27
          ],
          [
            111.176093,
            -7.602283,
            2099.87
          ],
          [
            111.176141,
            -7.602276,
            2102.2
          ],
          [
            111.176185,
            -7.602279,
            2104.32
          ],
          [
            111.176266,
            -7.602319,
            2108.39
          ],
          [
            111.176347,
            -7.602414,
            2113.2
          ],
          [
            111.176393,
            -7.602489,
            2115.41
          ],
          [
            111.176428,
            -7.602497,
            2117.43
          ],
          [
            111.176519,
            -7.602487,
            2122.63
          ],
          [
            111.176662,
            -7.602331,
            2129.65
          ],
          [
            111.17677,
            -7.602121,
            2133.67
          ],
          [
            111.176785,
            -7.602016,
            2133.32
          ],
          [
            111.176837,
            -7.601942,
            2135.11
          ],
          [
            111.176915,
            -7.601974,
            2139.31
          ],
          [
            111.176945,
            -7.602031,
            2142.2
          ],
          [
            111.17703,
            -7.602151,
            2148.65
          ],
          [
            111.17707,
            -7.602164,
            2150.88
          ],
          [
            111.17712,
            -7.602094,
            2151.71
          ],
          [
            111.177167,
            -7.602042,
            2152.11
          ],
          [
            111.17721,
            -7.602041,
            2153.58
          ],
          [
            111.177251,
            -7.602055,
            2155.48
          ],
          [
            111.17726,
            -7.60212,
            2158.15
          ],
          [
            111.177314,
            -7.602196,
            2163.19
          ],
          [
            111.177361,
            -7.602375,
            2170.26
          ],
          [
            111.177483,
            -7.602464,
            2178.7
          ],
          [
            111.177644,
            -7.602613,
            2189.99
          ],
          [
            111.177809,
            -7.602769,
            2199.25
          ],
          [
            111.177906,
            -7.602823,
            2203.93
          ],
          [
            111.178028,
            -7.602794,
            2209.5
          ],
          [
            111.178289,
            -7.60267,
            2213.89
          ],
          [
            111.178603,
            -7.602462,
            2217
          ],
          [
            111.17872,
            -7.602261,
            2214.85
          ],
          [
            111.178849,
            -7.602193,
            2217.01
          ],
          [
            111.179184,
            -7.602027,
            2214.1
          ],
          [
            111.179197,
            -7.602021,
            2214
          ],
          [
            111.17931,
            -7.602081,
            2217.94
          ],
          [
            111.179404,
            -7.602148,
            2222.32
          ],
          [
            111.179487,
            -7.60223,
            2227.63
          ],
          [
            111.179543,
            -7.602241,
            2228.32
          ],
          [
            111.179602,
            -7.602227,
            2227.12
          ],
          [
            111.179661,
            -7.60223,
            2226.61
          ],
          [
            111.179696,
            -7.602273,
            2229.15
          ],
          [
            111.17976,
            -7.602456,
            2241.02
          ],
          [
            111.179782,
            -7.602562,
            2247.5
          ],
          [
            111.179846,
            -7.602658,
            2252.35
          ],
          [
            111.179956,
            -7.602799,
            2260.45
          ],
          [
            111.180069,
            -7.602858,
            2263.91
          ],
          [
            111.180125,
            -7.602879,
            2265.46
          ],
          [
            111.180184,
            -7.602863,
            2264.68
          ],
          [
            111.180249,
            -7.60286,
            2264.87
          ],
          [
            111.180302,
            -7.602876,
            2266.52
          ],
          [
            111.180401,
            -7.602924,
            2271.04
          ],
          [
            111.180573,
            -7.602993,
            2277.9
          ],
          [
            111.180766,
            -7.603046,
            2283.44
          ],
          [
            111.180933,
            -7.603107,
            2289.34
          ],
          [
            111.181147,
            -7.603161,
            2293.96
          ],
          [
            111.181252,
            -7.603198,
            2297.01
          ],
          [
            111.181359,
            -7.603259,
            2301.67
          ],
          [
            111.181533,
            -7.603397,
            2311.33
          ],
          [
            111.181799,
            -7.603562,
            2318.1
          ],
          [
            111.181858,
            -7.603591,
            2319.82
          ],
          [
            111.182059,
            -7.603756,
            2331.46
          ],
          [
            111.182161,
            -7.603804,
            2334.59
          ],
          [
            111.182274,
            -7.603881,
            2340.47
          ],
          [
            111.182394,
            -7.603945,
            2345.72
          ],
          [
            111.182609,
            -7.604163,
            2363.91
          ],
          [
            111.18266,
            -7.604195,
            2366.75
          ],
          [
            111.182714,
            -7.604219,
            2368.97
          ],
          [
            111.182837,
            -7.604237,
            2371.55
          ],
          [
            111.18303,
            -7.604312,
            2381.51
          ],
          [
            111.183135,
            -7.604368,
            2388.15
          ],
          [
            111.183188,
            -7.604389,
            2390.93
          ],
          [
            111.183416,
            -7.604384,
            2398.19
          ],
          [
            111.183532,
            -7.60437,
            2402.13
          ],
          [
            111.183714,
            -7.604378,
            2410.89
          ],
          [
            111.183888,
            -7.604349,
            2419.31
          ],
          [
            111.184031,
            -7.604205,
            2425.5
          ],
          [
            111.184098,
            -7.604115,
            2428.2
          ],
          [
            111.184226,
            -7.603985,
            2434.12
          ],
          [
            111.184259,
            -7.603937,
            2435.13
          ],
          [
            111.184379,
            -7.603852,
            2440.62
          ],
          [
            111.184436,
            -7.603839,
            2443.6
          ],
          [
            111.184537,
            -7.603775,
            2448.48
          ],
          [
            111.184572,
            -7.603732,
            2450.23
          ],
          [
            111.184596,
            -7.603684,
            2451.35
          ],
          [
            111.184613,
            -7.603629,
            2451.96
          ],
          [
            111.184618,
            -7.603575,
            2451.91
          ],
          [
            111.184702,
            -7.603458,
            2455.52
          ],
          [
            111.184727,
            -7.603445,
            2456.66
          ],
          [
            111.184822,
            -7.603444,
            2460.72
          ],
          [
            111.184975,
            -7.603478,
            2467.68
          ],
          [
            111.185119,
            -7.603521,
            2474.38
          ],
          [
            111.185183,
            -7.603516,
            2476.01
          ],
          [
            111.185258,
            -7.603469,
            2476
          ],
          [
            111.185373,
            -7.603465,
            2478.63
          ],
          [
            111.185522,
            -7.603561,
            2487.78
          ],
          [
            111.185659,
            -7.603617,
            2494.7
          ],
          [
            111.185747,
            -7.603638,
            2498.4
          ],
          [
            111.185838,
            -7.603639,
            2501.43
          ],
          [
            111.185952,
            -7.603622,
            2504.38
          ],
          [
            111.186057,
            -7.603566,
            2505.33
          ],
          [
            111.186225,
            -7.603513,
            2508.41
          ],
          [
            111.18627,
            -7.603516,
            2509.65
          ],
          [
            111.186367,
            -7.603474,
            2511.2
          ],
          [
            111.186449,
            -7.603412,
            2512.56
          ],
          [
            111.186529,
            -7.603368,
            2514.96
          ],
          [
            111.186651,
            -7.603215,
            2518.37
          ],
          [
            111.186674,
            -7.603161,
            2518.54
          ],
          [
            111.18671,
            -7.603107,
            2519.12
          ],
          [
            111.186736,
            -7.603086,
            2519.68
          ],
          [
            111.186795,
            -7.603073,
            2521.35
          ],
          [
            111.186852,
            -7.603088,
            2523.48
          ],
          [
            111.186876,
            -7.603103,
            2524.51
          ],
          [
            111.18695,
            -7.603159,
            2527.96
          ],
          [
            111.187033,
            -7.603248,
            2532.81
          ],
          [
            111.18711,
            -7.603303,
            2536.3
          ],
          [
            111.187252,
            -7.603373,
            2541.68
          ],
          [
            111.187465,
            -7.603434,
            2550.24
          ],
          [
            111.187566,
            -7.603438,
            2553.82
          ],
          [
            111.187638,
            -7.603429,
            2556.22
          ],
          [
            111.187862,
            -7.603369,
            2562.1
          ],
          [
            111.188012,
            -7.603311,
            2566.15
          ],
          [
            111.188069,
            -7.603302,
            2568.11
          ],
          [
            111.188217,
            -7.603328,
            2575.53
          ],
          [
            111.188303,
            -7.60332,
            2579.73
          ],
          [
            111.188331,
            -7.603308,
            2580.96
          ],
          [
            111.188376,
            -7.603272,
            2582.8
          ],
          [
            111.188427,
            -7.603198,
            2584.99
          ],
          [
            111.188476,
            -7.603062,
            2587.01
          ],
          [
            111.188495,
            -7.60285,
            2586.69
          ],
          [
            111.188518,
            -7.602799,
            2587.46
          ],
          [
            111.188541,
            -7.602782,
            2588.25
          ],
          [
            111.18857,
            -7.602772,
            2589.36
          ],
          [
            111.188598,
            -7.602774,
            2590.55
          ],
          [
            111.188639,
            -7.602812,
            2592.83
          ],
          [
            111.188664,
            -7.602864,
            2594.79
          ],
          [
            111.188685,
            -7.602947,
            2597
          ],
          [
            111.188699,
            -7.602973,
            2597.96
          ],
          [
            111.18875,
            -7.603046,
            2601.43
          ],
          [
            111.188818,
            -7.603099,
            2605.76
          ],
          [
            111.188846,
            -7.603106,
            2607.36
          ],
          [
            111.188943,
            -7.603106,
            2612.01
          ],
          [
            111.189065,
            -7.603092,
            2617.24
          ],
          [
            111.189095,
            -7.603096,
            2618.55
          ],
          [
            111.189179,
            -7.603122,
            2622.76
          ],
          [
            111.189309,
            -7.603198,
            2629.73
          ],
          [
            111.189399,
            -7.603235,
            2633.95
          ],
          [
            111.189485,
            -7.603259,
            2637.65
          ],
          [
            111.189725,
            -7.603258,
            2645.97
          ],
          [
            111.189781,
            -7.603243,
            2646.47
          ],
          [
            111.189809,
            -7.603243,
            2646.98
          ],
          [
            111.189947,
            -7.603274,
            2650.12
          ],
          [
            111.190052,
            -7.603282,
            2651.62
          ],
          [
            111.190247,
            -7.603323,
            2652.21
          ],
          [
            111.190281,
            -7.603369,
            2653.5
          ],
          [
            111.190303,
            -7.603423,
            2655.06
          ],
          [
            111.190307,
            -7.603452,
            2656.03
          ],
          [
            111.190287,
            -7.603579,
            2660.75
          ],
          [
            111.190224,
            -7.603676,
            2664.85
          ],
          [
            111.190155,
            -7.603732,
            2667.55
          ],
          [
            111.19008,
            -7.603845,
            2672.51
          ],
          [
            111.190059,
            -7.603898,
            2674.5
          ],
          [
            111.190047,
            -7.60407,
            2681.12
          ],
          [
            111.190087,
            -7.604364,
            2690.57
          ],
          [
            111.190163,
            -7.604443,
            2693.82
          ],
          [
            111.190283,
            -7.604532,
            2697.82
          ],
          [
            111.190554,
            -7.604773,
            2707.99
          ],
          [
            111.190571,
            -7.604796,
            2709.12
          ],
          [
            111.190606,
            -7.604905,
            2714.28
          ],
          [
            111.190607,
            -7.604935,
            2715.76
          ],
          [
            111.190648,
            -7.605046,
            2721.09
          ],
          [
            111.190847,
            -7.605171,
            2728.95
          ],
          [
            111.190964,
            -7.60526,
            2734.64
          ],
          [
            111.191058,
            -7.605347,
            2740.21
          ],
          [
            111.19111,
            -7.605382,
            2742.72
          ],
          [
            111.19133,
            -7.605482,
            2751.67
          ],
          [
            111.191447,
            -7.6055,
            2755.1
          ],
          [
            111.1915,
            -7.6055,
            2756.57
          ],
          [
            111.191593,
            -7.605483,
            2758.57
          ],
          [
            111.191753,
            -7.605424,
            2761.77
          ],
          [
            111.191787,
            -7.605418,
            2762.63
          ],
          [
            111.191845,
            -7.605423,
            2764
          ],
          [
            111.192164,
            -7.605601,
            2774.21
          ],
          [
            111.1924,
            -7.60577,
            2783.33
          ],
          [
            111.19251,
            -7.605818,
            2786.85
          ],
          [
            111.192736,
            -7.605936,
            2795.71
          ],
          [
            111.192844,
            -7.605973,
            2799.25
          ],
          [
            111.193043,
            -7.60609,
            2805.85
          ],
          [
            111.19313,
            -7.606122,
            2807.15
          ],
          [
            111.19344,
            -7.606202,
            2809.36
          ],
          [
            111.193641,
            -7.606296,
            2810.65
          ],
          [
            111.193661,
            -7.606337,
            2811.39
          ],
          [
            111.193843,
            -7.60644,
            2813.36
          ],
          [
            111.193877,
            -7.606541,
            2816.49
          ],
          [
            111.19402,
            -7.606585,
            2817.57
          ],
          [
            111.194255,
            -7.606658,
            2823.47
          ],
          [
            111.194459,
            -7.60669,
            2830.73
          ],
          [
            111.194537,
            -7.60674,
            2834.57
          ],
          [
            111.194728,
            -7.606842,
            2841.24
          ],
          [
            111.194824,
            -7.606888,
            2843.16
          ],
          [
            111.195014,
            -7.606941,
            2845.56
          ],
          [
            111.195123,
            -7.606985,
            2847.01
          ],
          [
            111.195272,
            -7.607079,
            2848.72
          ],
          [
            111.195418,
            -7.607192,
            2849.2
          ],
          [
            111.195573,
            -7.607297,
            2850.38
          ],
          [
            111.195741,
            -7.607389,
            2852.67
          ],
          [
            111.195931,
            -7.607482,
            2858.65
          ],
          [
            111.195962,
            -7.607537,
            2860.75
          ],
          [
            111.196036,
            -7.607666,
            2865.73
          ],
          [
            111.196307,
            -7.608143,
            2876.97
          ],
          [
            111.196433,
            -7.608294,
            2881.96
          ],
          [
            111.196571,
            -7.608559,
            2882.63
          ],
          [
            111.196601,
            -7.60877,
            2878
          ],
          [
            111.196664,
            -7.608946,
            2878.32
          ],
          [
            111.196596,
            -7.609128,
            2883.21
          ],
          [
            111.196656,
            -7.609198,
            2885.38
          ],
          [
            111.196845,
            -7.609285,
            2886.82
          ],
          [
            111.197042,
            -7.609416,
            2889.53
          ],
          [
            111.19713,
            -7.609613,
            2893.6
          ],
          [
            111.197168,
            -7.609726,
            2895.15
          ],
          [
            111.197179,
            -7.609806,
            2896.01
          ],
          [
            111.197258,
            -7.610073,
            2898.75
          ],
          [
            111.197305,
            -7.610179,
            2899.64
          ],
          [
            111.197369,
            -7.610482,
            2903.58
          ],
          [
            111.197459,
            -7.610634,
            2904.81
          ],
          [
            111.197559,
            -7.610751,
            2906.87
          ],
          [
            111.197636,
            -7.610914,
            2908.81
          ],
          [
            111.197686,
            -7.611071,
            2912.07
          ],
          [
            111.19768,
            -7.611348,
            2919.65
          ],
          [
            111.197721,
            -7.611488,
            2922.81
          ],
          [
            111.197802,
            -7.611685,
            2926.27
          ],
          [
            111.197816,
            -7.61183,
            2928.77
          ],
          [
            111.197748,
            -7.611968,
            2931.45
          ],
          [
            111.197715,
            -7.612097,
            2935.22
          ],
          [
            111.197739,
            -7.612181,
            2937.55
          ],
          [
            111.197743,
            -7.612302,
            2940.71
          ],
          [
            111.197873,
            -7.612444,
            2942.76
          ],
          [
            111.197969,
            -7.612631,
            2942.94
          ],
          [
            111.197865,
            -7.612786,
            2940.27
          ],
          [
            111.197734,
            -7.613189,
            2936.75
          ],
          [
            111.197633,
            -7.613326,
            2935.97
          ],
          [
            111.197598,
            -7.613489,
            2935.23
          ],
          [
            111.197578,
            -7.613752,
            2936.55
          ],
          [
            111.197438,
            -7.614465,
            2943.04
          ],
          [
            111.197459,
            -7.614613,
            2945.1
          ],
          [
            111.197488,
            -7.614715,
            2946.64
          ],
          [
            111.197611,
            -7.615012,
            2950.55
          ],
          [
            111.197735,
            -7.615245,
            2953.43
          ],
          [
            111.197818,
            -7.615507,
            2956.08
          ],
          [
            111.197902,
            -7.615812,
            2960.26
          ],
          [
            111.197843,
            -7.615941,
            2960.31
          ],
          [
            111.197757,
            -7.616113,
            2961.92
          ],
          [
            111.197769,
            -7.616396,
            2965.32
          ],
          [
            111.19782,
            -7.616626,
            2966.79
          ],
          [
            111.197704,
            -7.616816,
            2969.74
          ],
          [
            111.197608,
            -7.617052,
            2973.48
          ],
          [
            111.19769,
            -7.617477,
            2977.84
          ],
          [
            111.197698,
            -7.617614,
            2979.7
          ],
          [
            111.197614,
            -7.617992,
            2987.76
          ],
          [
            111.197498,
            -7.618203,
            2995.49
          ],
          [
            111.197303,
            -7.618375,
            3006.85
          ],
          [
            111.197095,
            -7.618634,
            3019.72
          ],
          [
            111.197115,
            -7.618806,
            3021.84
          ],
          [
            111.197094,
            -7.618976,
            3025.63
          ],
          [
            111.196929,
            -7.619187,
            3035.39
          ],
          [
            111.196607,
            -7.619468,
            3048.36
          ],
          [
            111.196418,
            -7.619614,
            3053.01
          ],
          [
            111.196149,
            -7.619933,
            3057.58
          ],
          [
            111.196075,
            -7.620123,
            3057.92
          ],
          [
            111.196001,
            -7.620314,
            3060.61
          ],
          [
            111.195926,
            -7.620463,
            3064.6
          ],
          [
            111.195958,
            -7.62058,
            3065.1
          ],
          [
            111.196104,
            -7.620719,
            3062.5
          ],
          [
            111.196141,
            -7.620844,
            3064.33
          ],
          [
            111.196103,
            -7.621237,
            3074.45
          ],
          [
            111.196042,
            -7.621468,
            3082.25
          ],
          [
            111.195965,
            -7.621558,
            3086.18
          ],
          [
            111.195892,
            -7.621616,
            3088.41
          ],
          [
            111.195784,
            -7.621643,
            3090.3
          ],
          [
            111.19573,
            -7.621701,
            3091.85
          ],
          [
            111.195732,
            -7.621796,
            3093.39
          ],
          [
            111.195674,
            -7.621841,
            3094.82
          ],
          [
            111.195654,
            -7.621925,
            3096.99
          ],
          [
            111.195687,
            -7.62202,
            3099.24
          ],
          [
            111.195733,
            -7.622118,
            3102.07
          ],
          [
            111.195876,
            -7.622198,
            3105.14
          ],
          [
            111.195926,
            -7.622302,
            3107.88
          ],
          [
            111.195945,
            -7.62241,
            3110.52
          ],
          [
            111.195985,
            -7.622467,
            3112.09
          ],
          [
            111.196066,
            -7.622462,
            3112.43
          ],
          [
            111.196157,
            -7.622535,
            3114.21
          ],
          [
            111.196214,
            -7.622562,
            3114.68
          ],
          [
            111.196288,
            -7.622563,
            3114.7
          ],
          [
            111.196362,
            -7.622637,
            3116.01
          ],
          [
            111.196695,
            -7.622786,
            3117.09
          ],
          [
            111.196764,
            -7.622842,
            3117.74
          ],
          [
            111.196834,
            -7.623047,
            3118.74
          ],
          [
            111.196834,
            -7.623154,
            3119.37
          ],
          [
            111.196853,
            -7.623287,
            3119.83
          ],
          [
            111.196909,
            -7.623519,
            3119.46
          ],
          [
            111.196888,
            -7.62371,
            3120.05
          ],
          [
            111.19686,
            -7.623772,
            3120.55
          ],
          [
            111.196849,
            -7.623846,
            3120.74
          ],
          [
            111.196817,
            -7.62387,
            3121.29
          ],
          [
            111.196835,
            -7.624056,
            3124.95
          ],
          [
            111.196897,
            -7.624226,
            3126.86
          ],
          [
            111.196852,
            -7.624381,
            3130.87
          ],
          [
            111.196865,
            -7.624538,
            3134.22
          ],
          [
            111.196862,
            -7.624646,
            3136.14
          ],
          [
            111.196831,
            -7.624819,
            3138.89
          ],
          [
            111.19685,
            -7.624874,
            3138.65
          ],
          [
            111.196891,
            -7.624884,
            3137.51
          ],
          [
            111.196834,
            -7.624975,
            3139.33
          ],
          [
            111.196862,
            -7.625028,
            3138.52
          ],
          [
            111.196782,
            -7.625016,
            3140.85
          ],
          [
            111.196564,
            -7.625091,
            3145.89
          ],
          [
            111.196493,
            -7.625066,
            3147.53
          ],
          [
            111.196441,
            -7.625007,
            3148.39
          ],
          [
            111.196338,
            -7.625009,
            3150
          ],
          [
            111.196169,
            -7.624967,
            3151.91
          ],
          [
            111.196024,
            -7.624979,
            3153.98
          ],
          [
            111.195949,
            -7.624948,
            3154.29
          ],
          [
            111.195762,
            -7.624919,
            3155.96
          ],
          [
            111.195631,
            -7.624926,
            3157.02
          ],
          [
            111.195492,
            -7.624892,
            3157.05
          ],
          [
            111.195191,
            -7.624861,
            3157
          ],
          [
            111.194863,
            -7.625033,
            3162.63
          ],
          [
            111.194688,
            -7.625159,
            3166.92
          ],
          [
            111.194749,
            -7.62533,
            3172.79
          ],
          [
            111.194755,
            -7.625404,
            3175.4
          ],
          [
            111.194749,
            -7.625691,
            3186.88
          ],
          [
            111.194733,
            -7.625888,
            3195.04
          ],
          [
            111.194683,
            -7.625992,
            3199.98
          ],
          [
            111.194656,
            -7.626032,
            3202.01
          ],
          [
            111.194657,
            -7.626132,
            3206.68
          ],
          [
            111.194639,
            -7.626208,
            3210.34
          ],
          [
            111.194613,
            -7.626239,
            3211.96
          ],
          [
            111.194623,
            -7.626268,
            3213.27
          ],
          [
            111.194612,
            -7.62631,
            3215.09
          ],
          [
            111.194613,
            -7.626351,
            3216.74
          ],
          [
            111.194588,
            -7.626504,
            3223.55
          ],
          [
            111.194611,
            -7.626539,
            3225.03
          ],
          [
            111.194557,
            -7.626652,
            3230.68
          ],
          [
            111.194533,
            -7.626731,
            3234.46
          ],
          [
            111.194492,
            -7.626773,
            3236.42
          ],
          [
            111.194444,
            -7.62691,
            3242.85
          ],
          [
            111.194445,
            -7.62696,
            3245.15
          ],
          [
            111.194431,
            -7.626992,
            3246.21
          ],
          [
            111.194429,
            -7.627036,
            3247.66
          ],
          [
            111.194371,
            -7.627139,
            3250.99
          ],
          [
            111.194327,
            -7.627285,
            3250.76
          ],
          [
            111.194285,
            -7.627303,
            3250.27
          ],
          [
            111.19428,
            -7.627312,
            3249.94
          ],
          [
            111.194315,
            -7.627381,
            3247.72
          ]
        ]
      }
    }
  ]
}