{
  "type": "FeatureCollection",
  "features": [
    {
      "type": "Feature",
      "properties": {
        "name": "Lawu via Cemoro Sewu",
        "route_id": "lawu-via-cemoro-sewu",
        "mountain": "Lawu",
        "route": "Cemoro Sewu",
        "engine": "Alam Engine",
        "distance_km": 5.92,
        "elevation_gain": 1410,
        "elevation_loss": 62
      },
      "geometry": {
        "type": "LineString",
        "coordinates": [
          [
            111.191528,
            -7.664512,
            1900.3
          ],
          [
            111.191543,
            -7.664075,
            1907.72
          ],
          [
            111.191535,
            -7.663901,
            1911.79
          ],
          [
            111.191558,
            -7.663681,
            1917.75
          ],
          [
            111.191609,
            -7.663496,
            1921.92
          ],
          [
            111.191604,
            -7.66335,
            1924.51
          ],
          [
            111.191575,
            -7.663342,
            1924.65
          ],
          [
            111.191478,
            -7.663274,
            1925.84
          ],
          [
            111.191448,
            -7.66322,
            1926.53
          ],
          [
            111.191451,
            -7.663172,
            1927.09
          ],
          [
            111.191464,
            -7.663138,
            1927.49
          ],
          [
            111.191524,
            -7.663088,
            1928.1
          ],
          [
            111.19162,
            -7.663054,
            1928.48
          ],
          [
            111.191694,
            -7.663009,
            1929.01
          ],
          [
            111.191857,
            -7.662887,
            1930.04
          ],
          [
            111.191943,
            -7.662797,
            1930.59
          ],
          [
            111.192031,
            -7.662732,
            1930.48
          ],
          [
            111.192041,
            -7.662652,
            1931.53
          ],
          [
            111.192166,
            -7.662427,
            1934.36
          ],
          [
            111.192205,
            -7.66229,
            1937.47
          ],
          [
            111.192196,
            -7.662168,
            1941.34
          ],
          [
            111.192181,
            -7.662086,
            1944.4
          ],
          [
            111.192219,
            -7.662048,
            1944.83
          ],
          [
            111.192239,
            -7.662045,
            1944.43
          ],
          [
            111.192337,
            -7.661926,
            1946.06
          ],
          [
            111.192415,
            -7.66185,
            1947.98
          ],
          [
            111.192433,
            -7.661755,
            1950.77
          ],
          [
            111.192454,
            -7.661704,
            1952.21
          ],
          [
            111.192492,
            -7.661664,
            1953.5
          ],
          [
            111.19262,
            -7.661611,
            1956.31
          ],
          [
            111.192764,
            -7.661585,
            1959.86
          ],
          [
            111.192972,
            -7.661415,
            1970.78
          ],
          [
            111.193041,
            -7.661342,
            1974.18
          ],
          [
            111.193014,
            -7.661255,
            1975.57
          ],
          [
            111.192958,
            -7.661179,
            1976.4
          ],
          [
            111.19294,
            -7.661104,
            1978.01
          ],
          [
            111.19295,
            -7.660968,
            1981.05
          ],
          [
            111.19286,
            -7.66081,
            1983.84
          ],
          [
            111.192858,
            -7.660724,
            1985.85
          ],
          [
            111.192867,
            -7.660691,
            1986.65
          ],
          [
            111.192915,
            -7.660631,
            1988.11
          ],
          [
            111.192931,
            -7.66058,
            1989.17
          ],
          [
            111.193033,
            -7.660403,
            1993.77
          ],
          [
            111.193244,
            -7.66013,
            1997.65
          ],
          [
            111.193278,
            -7.660041,
            1998.2
          ],
          [
            111.193283,
            -7.659978,
            1998.88
          ],
          [
            111.193308,
            -7.65991,
            1999.53
          ],
          [
            111.193332,
            -7.659856,
            2000.02
          ],
          [
            111.193376,
            -7.659803,
            2000.46
          ],
          [
            111.1934,
            -7.659731,
            2001.37
          ],
          [
            111.193394,
            -7.65958,
            2003.86
          ],
          [
            111.193418,
            -7.659518,
            2004.95
          ],
          [
            111.19348,
            -7.659429,
            2006.09
          ],
          [
            111.193706,
            -7.659163,
            2007.83
          ],
          [
            111.193712,
            -7.658932,
            2010.05
          ],
          [
            111.193816,
            -7.658728,
            2010.17
          ],
          [
            111.193827,
            -7.658648,
            2010.64
          ],
          [
            111.193784,
            -7.65855,
            2012.78
          ],
          [
            111.19379,
            -7.658496,
            2013.4
          ],
          [
            111.193799,
            -7.658461,
            2014.09
          ],
          [
            111.19384,
            -7.658373,
            2015.74
          ],
          [
            111.193886,
            -7.658146,
            2022.6
          ],
          [
            111.193889,
            -7.658081,
            2025.23
          ],
          [
            111.193916,
            -7.658048,
            2026.74
          ],
          [
            111.193968,
            -7.658037,
            2027.6
          ],
          [
            111.194075,
            -7.658047,
            2028.85
          ],
          [
            111.194124,
            -7.658037,
            2030.35
          ],
          [
            111.194234,
            -7.658044,
            2032.3
          ],
          [
            111.194274,
            -7.658003,
            2034.18
          ],
          [
            111.194407,
            -7.657792,
            2040.55
          ],
          [
            111.194524,
            -7.657687,
            2043.08
          ],
          [
            111.194601,
            -7.657575,
            2045.11
          ],
          [
            111.194674,
            -7.6573,
            2047.77
          ],
          [
            111.194686,
            -7.657144,
            2049.53
          ],
          [
            111.194683,
            -7.656982,
            2050.67
          ],
          [
            111.19471,
            -7.656844,
            2052.31
          ],
          [
            111.194762,
            -7.656664,
            2054.58
          ],
          [
            111.194824,
            -7.656543,
            2057.25
          ],
          [
            111.194779,
            -7.656387,
            2059.35
          ],
          [
            111.194803,
            -7.656289,
            2061.84
          ],
          [
            111.194822,
            -7.656265,
            2062.81
          ],
          [
            111.194894,
            -7.656262,
            2064.56
          ],
          [
            111.19503,
            -7.656279,
            2067.31
          ],
          [
            111.195259,
            -7.656464,
            2069.13
          ],
          [
            111.195325,
            -7.656483,
            2069.95
          ],
          [
            111.195392,
            -7.656447,
            2071.85
          ],
          [
            111.195529,
            -7.656203,
            2079.21
          ],
          [
            111.195528,
            -7.656068,
            2082.37
          ],
          [
            111.195585,
            -7.655955,
            2085.61
          ],
          [
            111.195678,
            -7.655853,
            2088.54
          ],
          [
            111.195706,
            -7.655804,
            2089.85
          ],
          [
            111.195715,
            -7.655756,
            2090.99
          ],
          [
            111.19571,
            -7.655673,
            2092.42
          ],
          [
            111.195657,
            -7.655588,
            2093.63
          ],
          [
            111.195582,
            -7.655415,
            2097.21
          ],
          [
            111.195558,
            -7.655316,
            2098.79
          ],
          [
            111.195548,
            -7.655231,
            2100.37
          ],
          [
            111.195516,
            -7.65511,
            2102.76
          ],
          [
            111.195502,
            -7.654905,
            2107.36
          ],
          [
            111.195505,
            -7.654759,
            2110.82
          ],
          [
            111.195494,
            -7.654567,
            2114.64
          ],
          [
            111.195421,
            -7.654254,
            2120.71
          ],
          [
            111.195402,
            -7.654198,
            2121.78
          ],
          [
            111.195307,
            -7.654027,
            2125.24
          ],
          [
            111.195258,
            -7.653864,
            2128.65
          ],
          [
            111.195193,
            -7.6537,
            2131.35
          ],
          [
            111.194982,
            -7.653397,
            2136.61
          ],
          [
            111.194981,
            -7.653305,
            2137.99
          ],
          [
            111.195079,
            -7.652967,
            2143.96
          ],
          [
            111.195117,
            -7.652748,
            2150.55
          ],
          [
            111.195109,
            -7.652638,
            2153.41
          ],
          [
            111.195033,
            -7.652493,
            2155.75
          ],
          [
            111.194952,
            -7.652404,
            2157.42
          ],
          [
            111.194934,
            -7.652347,
            2158.46
          ],
          [
            111.194963,
            -7.652299,
            2159.64
          ],
          [
            111.195032,
            -7.652236,
            2161.06
          ],
          [
            111.195105,
            -7.652147,
            2164.46
          ],
          [
            111.195113,
            -7.652106,
            2165.83
          ],
          [
            111.195088,
            -7.652065,
            2166.32
          ],
          [
            111.195041,
            -7.652025,
            2166.62
          ],
          [
            111.194912,
            -7.651975,
            2167.32
          ],
          [
            111.194873,
            -7.65194,
            2168.28
          ],
          [
            111.194847,
            -7.651895,
            2169.8
          ],
          [
            111.194855,
            -7.65186,
            2170.73
          ],
          [
            111.195055,
            -7.651694,
            2177.28
          ],
          [
            111.195095,
            -7.651649,
            2179.37
          ],
          [
            111.195108,
            -7.651603,
            2180.83
          ],
          [
            111.195093,
            -7.651421,
            2185.85
          ],
          [
            111.195101,
            -7.651257,
            2191.06
          ],
          [
            111.19506,
            -7.651048,
            2198.04
          ],
          [
            111.195017,
            -7.650959,
            2201.17
          ],
          [
            111.194876,
            -7.650899,
            2203.36
          ],
          [
            111.194786,
            -7.650821,
            2207.59
          ],
          [
            111.194703,
            -7.650773,
            2211.31
          ],
          [
            111.194618,
            -7.65076,
            2214.17
          ],
          [
            111.194494,
            -7.650756,
            2217.57
          ],
          [
            111.194466,
            -7.650739,
            2219.46
          ],
          [
            111.194455,
            -7.650713,
            2221.5
          ],
          [
            111.194469,
            -7.650683,
            2223.03
          ],
          [
            111.19455,
            -7.650613,
            2225.48
          ],
          [
            111.194549,
            -7.65057,
            2228.51
          ],
          [
            111.194511,
            -7.650546,
            2231.14
          ],
          [
            111.194226,
            -7.650489,
            2241.73
          ],
          [
            111.194179,
            -7.650458,
            2244.53
          ],
          [
            111.194121,
            -7.650339,
            2252.18
          ],
          [
            111.194093,
            -7.650234,
            2258.34
          ],
          [
            111.194208,
            -7.649966,
            2275.29
          ],
          [
            111.194306,
            -7.649723,
            2287.7
          ],
          [
            111.19437,
            -7.649566,
            2294.13
          ],
          [
            111.194423,
            -7.649372,
            2298.78
          ],
          [
            111.194544,
            -7.649222,
            2304.2
          ],
          [
            111.194633,
            -7.64907,
            2308.71
          ],
          [
            111.194695,
            -7.648897,
            2313.84
          ],
          [
            111.194759,
            -7.648832,
            2316.22
          ],
          [
            111.194967,
            -7.64871,
            2320.64
          ],
          [
            111.195109,
            -7.648614,
            2322.86
          ],
          [
            111.195214,
            -7.648463,
            2324.67
          ],
          [
            111.195278,
            -7.648261,
            2327.49
          ],
          [
            111.195293,
            -7.648033,
            2332.02
          ],
          [
            111.195272,
            -7.647886,
            2336.44
          ],
          [
            111.195209,
            -7.647761,
            2339.93
          ],
          [
            111.195164,
            -7.647694,
            2342.09
          ],
          [
            111.195146,
            -7.647414,
            2349.92
          ],
          [
            111.195162,
            -7.647214,
            2356.24
          ],
          [
            111.195252,
            -7.646999,
            2362.4
          ],
          [
            111.19526,
            -7.646937,
            2364.55
          ],
          [
            111.195233,
            -7.646865,
            2367.22
          ],
          [
            111.195176,
            -7.646777,
            2370.95
          ],
          [
            111.19516,
            -7.646733,
            2372.68
          ],
          [
            111.195203,
            -7.646555,
            2377.57
          ],
          [
            111.195172,
            -7.646473,
            2380.69
          ],
          [
            111.195116,
            -7.646384,
            2384.8
          ],
          [
            111.19508,
            -7.646269,
            2389.67
          ],
          [
            111.195105,
            -7.645994,
            2399.48
          ],
          [
            111.195132,
            -7.645839,
            2404.17
          ],
          [
            111.195125,
            -7.645754,
            2407.36
          ],
          [
            111.195107,
            -7.645674,
            2410.77
          ],
          [
            111.195143,
            -7.64552,
            2415.64
          ],
          [
            111.195274,
            -7.645273,
            2421.1
          ],
          [
            111.19539,
            -7.6451,
            2423.39
          ],
          [
            111.195408,
            -7.64497,
            2427.75
          ],
          [
            111.1954,
            -7.644876,
            2431.29
          ],
          [
            111.195376,
            -7.644809,
            2434.41
          ],
          [
            111.195253,
            -7.644556,
            2445.41
          ],
          [
            111.195241,
            -7.644536,
            2446.18
          ],
          [
            111.195203,
            -7.644514,
            2447.74
          ],
          [
            111.195186,
            -7.644485,
            2449.04
          ],
          [
            111.195181,
            -7.644408,
            2451.32
          ],
          [
            111.195167,
            -7.644374,
            2452.6
          ],
          [
            111.195109,
            -7.644289,
            2456.28
          ],
          [
            111.19509,
            -7.644241,
            2458.11
          ],
          [
            111.195105,
            -7.644089,
            2461.55
          ],
          [
            111.19517,
            -7.643878,
            2465.11
          ],
          [
            111.195188,
            -7.64365,
            2471.03
          ],
          [
            111.195182,
            -7.643609,
            2472.27
          ],
          [
            111.195125,
            -7.643565,
            2474.3
          ],
          [
            111.195076,
            -7.643545,
            2475.48
          ],
          [
            111.194981,
            -7.643484,
            2477.98
          ],
          [
            111.194948,
            -7.643411,
            2479.37
          ],
          [
            111.194944,
            -7.643365,
            2480.04
          ],
          [
            111.194949,
            -7.643303,
            2481.08
          ],
          [
            111.194968,
            -7.643221,
            2483.14
          ],
          [
            111.194985,
            -7.642967,
            2492.05
          ],
          [
            111.19501,
            -7.642856,
            2497.61
          ],
          [
            111.195157,
            -7.642674,
            2505.44
          ],
          [
            111.195165,
            -7.64265,
            2506.5
          ],
          [
            111.195096,
            -7.642423,
            2514.63
          ],
          [
            111.195027,
            -7.642335,
            2516.51
          ],
          [
            111.195004,
            -7.642279,
            2517.6
          ],
          [
            111.195012,
            -7.64225,
            2518.03
          ],
          [
            111.1952,
            -7.642076,
            2522.31
          ],
          [
            111.195236,
            -7.642021,
            2524.27
          ],
          [
            111.195231,
            -7.641969,
            2525.71
          ],
          [
            111.195175,
            -7.641838,
            2529.35
          ],
          [
            111.19517,
            -7.641796,
            2530.67
          ],
          [
            111.195201,
            -7.641757,
            2532.74
          ],
          [
            111.195301,
            -7.641675,
            2538.27
          ],
          [
            111.195308,
            -7.641626,
            2540.44
          ],
          [
            111.195307,
            -7.641584,
            2542.15
          ],
          [
            111.195277,
            -7.641483,
            2545.59
          ],
          [
            111.195265,
            -7.641335,
            2551.39
          ],
          [
            111.195269,
            -7.641202,
            2556.72
          ],
          [
            111.19529,
            -7.641116,
            2560.7
          ],
          [
            111.19527,
            -7.641017,
            2564.18
          ],
          [
            111.195269,
            -7.640902,
            2569.21
          ],
          [
            111.195193,
            -7.640792,
            2571.51
          ],
          [
            111.19519,
            -7.640762,
            2572.75
          ],
          [
            111.195236,
            -7.640679,
            2578.85
          ],
          [
            111.195241,
            -7.640647,
            2580.82
          ],
          [
            111.195238,
            -7.640631,
            2581.5
          ],
          [
            111.195157,
            -7.640553,
            2582.59
          ],
          [
            111.195139,
            -7.640501,
            2585.03
          ],
          [
            111.195068,
            -7.640366,
            2590.2
          ],
          [
            111.195055,
            -7.640325,
            2592.27
          ],
          [
            111.195034,
            -7.640179,
            2600.48
          ],
          [
            111.194993,
            -7.64003,
            2608.02
          ],
          [
            111.195001,
            -7.639864,
            2619.12
          ],
          [
            111.194982,
            -7.639753,
            2626.12
          ],
          [
            111.194907,
            -7.639629,
            2631.8
          ],
          [
            111.194886,
            -7.639562,
            2635.64
          ],
          [
            111.194866,
            -7.639445,
            2643.22
          ],
          [
            111.194868,
            -7.63941,
            2645.73
          ],
          [
            111.194829,
            -7.639242,
            2657.11
          ],
          [
            111.194805,
            -7.639201,
            2659.34
          ],
          [
            111.194766,
            -7.639101,
            2665.16
          ],
          [
            111.194783,
            -7.63905,
            2669.51
          ],
          [
            111.194825,
            -7.638995,
            2675.09
          ],
          [
            111.194799,
            -7.638911,
            2679.94
          ],
          [
            111.194808,
            -7.638874,
            2682.87
          ],
          [
            111.194847,
            -7.638801,
            2689.24
          ],
          [
            111.194845,
            -7.638656,
            2698.07
          ],
          [
            111.194863,
            -7.638433,
            2711.84
          ],
          [
            111.194844,
            -7.638211,
            2724.81
          ],
          [
            111.194857,
            -7.638145,
            2729.34
          ],
          [
            111.194863,
            -7.638034,
            2736.63
          ],
          [
            111.194852,
            -7.638009,
            2737.84
          ],
          [
            111.194727,
            -7.637899,
            2741.36
          ],
          [
            111.194701,
            -7.63786,
            2743.21
          ],
          [
            111.194692,
            -7.637835,
            2744.72
          ],
          [
            111.194684,
            -7.637761,
            2749.43
          ],
          [
            111.194803,
            -7.637492,
            2768.5
          ],
          [
            111.194811,
            -7.63745,
            2771.11
          ],
          [
            111.19478,
            -7.637321,
            2778.13
          ],
          [
            111.194771,
            -7.637241,
            2782.66
          ],
          [
            111.194787,
            -7.637165,
            2787.34
          ],
          [
            111.194804,
            -7.636971,
            2798.38
          ],
          [
            111.194817,
            -7.636917,
            2801.51
          ],
          [
            111.194855,
            -7.636874,
            2804.7
          ],
          [
            111.194875,
            -7.636831,
            2807.45
          ],
          [
            111.194884,
            -7.636764,
            2811.59
          ],
          [
            111.194859,
            -7.636705,
            2814.39
          ],
          [
            111.194688,
            -7.6365,
            2821.71
          ],
          [
            111.194621,
            -7.636444,
            2824.11
          ],
          [
            111.194604,
            -7.63639,
            2827.13
          ],
          [
            111.19468,
            -7.636234,
            2839.79
          ],
          [
            111.19471,
            -7.636233,
            2840.89
          ],
          [
            111.194733,
            -7.636208,
            2843.5
          ],
          [
            111.194675,
            -7.63613,
            2846.89
          ],
          [
            111.194629,
            -7.636013,
            2853.53
          ],
          [
            111.194626,
            -7.635983,
            2855.48
          ],
          [
            111.194633,
            -7.635953,
            2857.86
          ],
          [
            111.194591,
            -7.635918,
            2858.86
          ],
          [
            111.19456,
            -7.635879,
            2860.54
          ],
          [
            111.194469,
            -7.635848,
            2860.02
          ],
          [
            111.194455,
            -7.63581,
            2862.23
          ],
          [
            111.194469,
            -7.635746,
            2867.33
          ],
          [
            111.194548,
            -7.635667,
            2875.1
          ],
          [
            111.194578,
            -7.63559,
            2882.07
          ],
          [
            111.19462,
            -7.63555,
            2886.81
          ],
          [
            111.194642,
            -7.635483,
            2892.82
          ],
          [
            111.194655,
            -7.63539,
            2899.4
          ],
          [
            111.194674,
            -7.635325,
            2904.36
          ],
          [
            111.194733,
            -7.635243,
            2912.78
          ],
          [
            111.194768,
            -7.635205,
            2917.56
          ],
          [
            111.194792,
            -7.635159,
            2922.1
          ],
          [
            111.194791,
            -7.635131,
            2924.07
          ],
          [
            111.194764,
            -7.635045,
            2929.1
          ],
          [
            111.194735,
            -7.634989,
            2931.68
          ],
          [
            111.194715,
            -7.634971,
            2931.89
          ],
          [
            111.194704,
            -7.634937,
            2934.14
          ],
          [
            111.19471,
            -7.634916,
            2936.18
          ],
          [
            111.194761,
            -7.634852,
            2944.0
          ],
          [
            111.194836,
            -7.634821,
            2949.98
          ],
          [
            111.194861,
            -7.634747,
            2956.79
          ],
          [
            111.194794,
            -7.634624,
            2963.48
          ],
          [
            111.194749,
            -7.634466,
            2973.52
          ],
          [
            111.194782,
            -7.634323,
            2984.83
          ],
          [
            111.194869,
            -7.634206,
            2996.11
          ],
          [
            111.194955,
            -7.634131,
            3004.75
          ],
          [
            111.194932,
            -7.634016,
            3011.96
          ],
          [
            111.194954,
            -7.633936,
            3018.4
          ],
          [
            111.195028,
            -7.633887,
            3024.58
          ],
          [
            111.195111,
            -7.633883,
            3027.91
          ],
          [
            111.195161,
            -7.63387,
            3030.51
          ],
          [
            111.195321,
            -7.633751,
            3041.66
          ],
          [
            111.195427,
            -7.633655,
            3049.44
          ],
          [
            111.195602,
            -7.633366,
            3070.28
          ],
          [
            111.195669,
            -7.633266,
            3076.8
          ],
          [
            111.195726,
            -7.632988,
            3096.73
          ],
          [
            111.195775,
            -7.632934,
            3101.1
          ],
          [
            111.196126,
            -7.632928,
            3100.83
          ],
          [
            111.196165,
            -7.632912,
            3101.29
          ],
          [
            111.196169,
            -7.632883,
            3103.11
          ],
          [
            111.196126,
            -7.632801,
            3109.17
          ],
          [
            111.196113,
            -7.632726,
            3113.47
          ],
          [
            111.196143,
            -7.632629,
            3116.35
          ],
          [
            111.196243,
            -7.632482,
            3116.95
          ],
          [
            111.196491,
            -7.632221,
            3108.1
          ],
          [
            111.196668,
            -7.631913,
            3105.41
          ],
          [
            111.196788,
            -7.631699,
            3108.56
          ],
          [
            111.196909,
            -7.631485,
            3113.94
          ],
          [
            111.197,
            -7.631235,
            3121.12
          ],
          [
            111.197122,
            -7.630925,
            3128.81
          ],
          [
            111.197238,
            -7.630707,
            3132.59
          ],
          [
            111.197357,
            -7.630532,
            3137.29
          ],
          [
            111.197476,
            -7.630358,
            3144.15
          ],
          [
            111.197588,
            -7.630296,
            3145.15
          ],
          [
            111.197692,
            -7.630255,
            3144.81
          ],
          [
            111.197793,
            -7.630201,
            3145.08
          ],
          [
            111.197926,
            -7.630069,
            3145.61
          ],
          [
            111.19799,
            -7.629949,
            3146.69
          ],
          [
            111.198021,
            -7.629836,
            3147.74
          ],
          [
            111.198002,
            -7.629698,
            3149.65
          ],
          [
            111.197902,
            -7.629418,
            3153.47
          ],
          [
            111.197884,
            -7.629306,
            3153.81
          ],
          [
            111.197895,
            -7.629232,
            3153.62
          ],
          [
            111.197964,
            -7.629011,
            3151.68
          ],
          [
            111.198002,
            -7.628709,
            3151.96
          ],
          [
            111.197948,
            -7.628713,
            3153.69
          ],
          [
            111.197903,
            -7.628682,
            3155.18
          ],
          [
            111.197877,
            -7.62861,
            3155.54
          ],
          [
            111.19783,
            -7.628589,
            3156.6
          ],
          [
            111.197832,
            -7.628524,
            3155.83
          ],
          [
            111.197869,
            -7.628457,
            3154.01
          ],
          [
            111.197949,
            -7.62841,
            3151.32
          ],
          [
            111.197804,
            -7.628333,
            3153.38
          ],
          [
            111.19775,
            -7.628279,
            3153.54
          ],
          [
            111.197666,
            -7.628243,
            3154.9
          ],
          [
            111.197582,
            -7.62819,
            3155.86
          ],
          [
            111.197509,
            -7.628154,
            3156.86
          ],
          [
            111.197478,
            -7.628116,
            3156.65
          ],
          [
            111.197481,
            -7.628072,
            3155.27
          ],
          [
            111.197453,
            -7.628048,
            3155.4
          ],
          [
            111.197354,
            -7.628028,
            3157.86
          ],
          [
            111.197228,
            -7.627973,
            3159.78
          ],
          [
            111.19716,
            -7.627924,
            3160.65
          ],
          [
            111.197131,
            -7.627879,
            3160.4
          ],
          [
            111.197076,
            -7.627865,
            3161.19
          ],
          [
            111.19703,
            -7.627812,
            3160.69
          ],
          [
            111.197121,
            -7.627691,
            3158.99
          ],
          [
            111.197348,
            -7.627643,
            3156.27
          ],
          [
            111.197743,
            -7.627607,
            3151.4
          ],
          [
            111.197826,
            -7.627585,
            3150.09
          ],
          [
            111.197855,
            -7.627557,
            3150.16
          ],
          [
            111.197857,
            -7.627507,
            3151.47
          ],
          [
            111.197835,
            -7.627426,
            3152.99
          ],
          [
            111.197637,
            -7.627282,
            3157.55
          ],
          [
            111.197044,
            -7.626849,
            3160.2
          ],
          [
            111.196898,
            -7.626789,
            3161.31
          ],
          [
            111.196848,
            -7.626744,
            3160.81
          ],
          [
            111.196864,
            -7.626666,
            3157.4
          ],
          [
            111.196902,
            -7.626612,
            3154.3
          ],
          [
            111.196949,
            -7.626444,
            3147.98
          ],
          [
            111.196941,
            -7.626372,
            3146.56
          ],
          [
            111.196902,
            -7.626308,
            3146.44
          ],
          [
            111.196842,
            -7.626143,
            3145.43
          ],
          [
            111.196863,
            -7.626032,
            3142.94
          ],
          [
            111.19684,
            -7.62581,
            3140.5
          ],
          [
            111.196763,
            -7.625709,
            3141.47
          ],
          [
            111.196728,
            -7.625537,
            3140.37
          ],
          [
            111.196843,
            -7.625252,
            3137.04
          ],
          [
            111.196834,
            -7.625187,
            3138.08
          ],
          [
            111.196862,
            -7.625028,
            3138.52
          ],
          [
            111.196782,
            -7.625016,
            3140.85
          ],
          [
            111.19663,
            -7.625069,
            3144.36
          ],
          [
            111.196564,
            -7.625091,
            3145.89
          ],
          [
            111.196493,
            -7.625066,
            3147.53
          ],
          [
            111.196441,
            -7.625007,
            3148.39
          ],
          [
            111.196338,
            -7.625009,
            3150.0
          ],
          [
            111.196169,
            -7.624967,
            3151.91
          ],
          [
            111.196024,
            -7.624979,
            3153.98
          ],
          [
            111.195949,
            -7.624948,
            3154.29
          ],
          [
            111.195762,
            -7.624919,
            3155.96
          ],
          [
            111.195631,
            -7.624926,
            3157.02
          ],
          [
            111.195492,
            -7.624892,
            3157.05
          ],
          [
            111.195191,
            -7.624861,
            3157.0
          ],
          [
            111.194863,
            -7.625033,
            3162.63
          ],
          [
            111.194688,
            -7.625159,
            3166.92
          ],
          [
            111.194749,
            -7.62533,
            3172.79
          ],
          [
            111.194755,
            -7.625404,
            3175.4
          ],
          [
            111.194749,
            -7.625691,
            3186.88
          ],
          [
            111.194733,
            -7.625888,
            3195.04
          ],
          [
            111.194683,
            -7.625992,
            3199.98
          ],
          [
            111.194656,
            -7.626032,
            3202.01
          ],
          [
            111.194657,
            -7.626132,
            3206.68
          ],
          [
            111.194639,
            -7.626208,
            3210.34
          ],
          [
            111.194613,
            -7.626239,
            3211.96
          ],
          [
            111.194623,
            -7.626268,
            3213.27
          ],
          [
            111.194612,
            -7.62631,
            3215.09
          ],
          [
            111.194613,
            -7.626351,
            3216.74
          ],
          [
            111.194588,
            -7.626504,
            3223.55
          ],
          [
            111.194611,
            -7.626539,
            3225.03
          ],
          [
            111.194557,
            -7.626652,
            3230.68
          ],
          [
            111.194533,
            -7.626731,
            3234.46
          ],
          [
            111.194492,
            -7.626773,
            3236.42
          ],
          [
            111.194444,
            -7.62691,
            3242.85
          ],
          [
            111.194445,
            -7.62696,
            3245.15
          ],
          [
            111.194431,
            -7.626992,
            3246.21
          ],
          [
            111.194429,
            -7.627036,
            3247.66
          ],
          [
            111.194371,
            -7.627139,
            3250.99
          ],
          [
            111.194327,
            -7.627285,
            3250.76
          ],
          [
            111.194285,
            -7.627303,
            3250.27
          ],
          [
            111.19428,
            -7.627312,
            3249.94
          ],
          [
            111.194316,
            -7.627382,
            3247.68
          ]
        ]
      }
    },
    {
      "type": "Feature",
      "properties": {
        "name": "Start",
        "ele": 1900.3,
        "distance_km": 0,
        "locked": true,
        "category": "pos"
      },
      "geometry": {
        "type": "Point",
        "coordinates": [
          111.191528,
          -7.664512,
          1900.3
        ]
      }
    },
    {
      "type": "Feature",
      "properties": {
        "name": "Pos 1",
        "ele": 2197.3201123827553,
        "distance_km": 1.85,
        "locked": false,
        "category": "pos"
      },
      "geometry": {
        "type": "Point",
        "coordinates": [
          111.195047,
          -7.651004,
          2197.3201123827553
        ]
      }
    },
    {
      "type": "Feature",
      "properties": {
        "name": "Pos 2",
        "ele": 2579.1995885117435,
        "distance_km": 3.23,
        "locked": false,
        "category": "pos"
      },
      "geometry": {
        "type": "Point",
        "coordinates": [
          111.195176,
          -7.640611,
          2579.1995885117435
        ]
      }
    },
    {
      "type": "Feature",
      "properties": {
        "name": "Pos 3",
        "ele": 2785.539664741639,
        "distance_km": 3.63,
        "locked": false,
        "category": "pos"
      },
      "geometry": {
        "type": "Point",
        "coordinates": [
          111.194818,
          -7.637186,
          2785.539664741639
        ]
      }
    },
    {
      "type": "Feature",
      "properties": {
        "name": "Pos 4",
        "ele": 3049.2319786048874,
        "distance_km": 4.11,
        "locked": false,
        "category": "pos"
      },
      "geometry": {
        "type": "Point",
        "coordinates": [
          111.19541,
          -7.633638,
          3049.2319786048874
        ]
      }
    },
    {
      "type": "Feature",
      "properties": {
        "name": "Pos 5",
        "ele": 3117.305408446184,
        "distance_km": 4.28,
        "locked": false,
        "category": "pos"
      },
      "geometry": {
        "type": "Point",
        "coordinates": [
          111.196148,
          -7.632535,
          3117.305408446184
        ]
      }
    },
    {
      "type": "Feature",
      "properties": {
        "name": "Hargo Dalem",
        "ele": 3143.977470128451,
        "distance_km": 5.45,
        "locked": false,
        "category": "pos"
      },
      "geometry": {
        "type": "Point",
        "coordinates": [
          111.196615,
          -7.625046,
          3143.977470128451
        ]
      }
    },
    {
      "type": "Feature",
      "properties": {
        "name": "Hargo Dumilab",
        "ele": 3247.2058486574097,
        "distance_km": 5.94,
        "locked": false,
        "category": "pos"
      },
      "geometry": {
        "type": "Point",
        "coordinates": [
          111.194304,
          -7.627383,
          3247.2058486574097
        ]
      }
    },
    {
      "type": "Feature",
      "properties": {
        "name": "Finish",
        "ele": 3247.68,
        "distance_km": 5.94,
        "locked": true,
        "category": "pos"
      },
      "geometry": {
        "type": "Point",
        "coordinates": [
          111.194316,
          -7.627382,
          3247.68
        ]
      }
    },
    {
      "type": "Feature",
      "properties": {
        "name": "Basecamp",
        "ele": 1915.5854622138627,
        "distance_km": 0.09,
        "locked": false,
        "category": "poi_parkir"
      },
      "geometry": {
        "type": "Point",
        "coordinates": [
          111.191651,
          -7.663724,
          1915.5854622138627
        ]
      }
    },
    {
      "type": "Feature",
      "properties": {
        "name": "Sendang Drajat",
        "ele": 3148.6425911239307,
        "distance_km": 4.79,
        "locked": false,
        "category": "poi_air"
      },
      "geometry": {
        "type": "Point",
        "coordinates": [
          111.198063,
          -7.628603,
          3148.6425911239307
        ]
      }
    }
  ]
}